VSP RF A1               
1 59135U 24043AP  26066.03073316  .00000577  00000+0  25199-4 0  9997
2 59135  97.5247 201.5379 0009431 234.6315 125.4042 15.26179596111403
STARLINK-34101          
1 63812U 25092J   26068.32647524  .00031431  00000+0  11467-2 0  9995
2 63812  42.9969 174.2005 0000652 231.9455 128.1338 15.27584887 48500
